GEOSCAN-3 (RS92S3)
1 64893U 25155T   26193.14692829  .00010946  00000-0  31179-3 0  9994
2 64893  97.4542 163.3313 0008646  95.2743 264.9488 15.36238116 84680
INNOSAT3 (RS92S0)
1 64894U 25155U   26193.18736233  .00025698  00000-0  53318-3 0  9996
2 64894  97.4486 165.3165 0008312  97.8506 262.3686 15.45659250 84824
KNACKSAT-2
1 67683U 98067XZ  26192.35673257  .00035473  00000-0  40006-3 0  9993
2 67683  51.6254 172.7064 0008194 314.9456  45.0873 15.62129323 24058
