OBJECT_NAME,OBJECT_ID,EPOCH,MEAN_MOTION,ECCENTRICITY,INCLINATION,RA_OF_ASC_NODE,ARG_OF_PERICENTER,MEAN_ANOMALY,EPHEMERIS_TYPE,CLASSIFICATION_TYPE,NORAD_CAT_ID,ELEMENT_SET_NO,REV_AT_EPOCH,BSTAR,MEAN_MOTION_DOT,MEAN_MOTION_DDOT
GEOSCAN 3 (RS92S3),2025-155T,2026-07-12T03:31:34.604256,15.36238116,.0008646,97.4542,163.3313,95.2743,264.9488,0,U,64893,999,8468,.31179E-3,.10946E-3,0
INNOSAT 3 (RS92S0),2025-155U,2026-07-12T04:29:48.105312,15.45659250,.0008312,97.4486,165.3165,97.8506,262.3686,0,U,64894,999,8482,.53318E-3,.25698E-3,0
KNACKSAT-2,1998-067XZ,2026-07-11T08:33:41.694048,15.62129323,.00081939,51.6254,172.7064,314.9456,45.0873,0,U,67683,999,2405,.40006392E-3,.35473E-3,0
